TDRS 3                  
1 19548U 88091B   22201.90632557 -.00000308  00000+0  00000+0 0  9997
2 19548  13.6896 351.0570 0033427 329.8086 254.9163  1.00281421111055
HST                     
1 20580U 90037B   22201.73316431  .00002614  00000+0  14313-3 0  9996
2 20580  28.4707 308.2698 0002774  39.3903  85.9247 15.10693652571251
TDRS 5                  
1 21639U 91054B   22201.70398054  .00000074  00000+0  00000+0 0  9992
2 21639  14.2345   4.3878 0023512   4.0994  15.7925  1.00277640113406
TDRS 6                  
1 22314U 93003B   22201.90710491 -.00000305  00000+0  00000+0 0  9992
2 22314  14.1327   7.6269 0012494 121.5281  90.1361  1.00267879108067
TDRS 7                  
1 23613U 95035B   22201.89018514 -.00000208  00000+0  00000+0 0  9999
2 23613  13.9645 358.3183 0028512  56.3247 289.0300  1.00267258 98843
ISS (ZARYA)             
1 25544U 98067A   22202.50409816  .00008230  00000+0  15168-3 0  9997
2 25544  51.6423 166.6142 0005036  35.1595  64.1866 15.50062623350505
LANDSAT 7               
1 25682U 99020A   22202.56615444  .00000295  00000+0  70932-4 0  9996
2 25682  97.9769 249.3465 0001484  69.2364 290.9000 14.59774265237543
TERRA                   
1 25994U 99068A   22202.46429491  .00000287  00000+0  73471-4 0  9990
2 25994  98.1356 273.6030 0001429  99.9039 316.5943 14.57162363201573
TDRS 8                  
1 26388U 00034A   22202.03938299 -.00000244  00000+0  00000+0 0  9994
2 26388  10.4181  42.3208 0021177 352.5707   7.3792  1.00275702 80864
TIMED                   
1 26998U 01055B   22201.77596397  .00000751  00000+0  84338-4 0  9997
2 26998  74.0706 213.2554 0000683 291.3890  68.7218 14.88722208117969
TDRS 9                  
1 27389U 02011A   22201.57042104 -.00000297  00000+0  00000+0 0  9990
2 27389   9.0872  60.5193 0022517 304.1250  76.5469  1.00264593 76137
AQUA                    
1 27424U 02022A   22202.49371889  .00000549  00000+0  13133-3 0  9993
2 27424  98.2482 144.0642 0001878  93.8969  39.8271 14.57335331 75189
TDRS 10                 
1 27566U 02055A   22201.83574998  .00000080  00000+0  00000+0 0  9994
2 27566   8.2612  49.7846 0007571 351.8088  26.7144  1.00275194 71919
SORCE                   
1 27651U 03004A   22202.24831829  .00001363  00000+0  15235-3 0  9994
2 27651  39.9967  28.7818 0023533 347.2521  12.7671 14.89993716 58138
AURA                    
1 28376U 04026A   22202.14419796  .00000579  00000+0  13871-3 0  9990
2 28376  98.2099 144.9969 0001420  85.9511 274.1850 14.57094252958179
SWIFT                   
1 28485U 04047A   22201.93941815  .00004502  00000+0  26521-3 0  9998
2 28485  20.5574  75.2860 0010567   4.3840 355.6686 15.06596875968686
THEMIS A                
1 30580U 07004A   22202.22681858 -.00000400  00000+0  40383-1 0  9998
2 30580  14.1568 342.1507 8381418 172.1709 227.4617  0.87835729 53427
THEMIS D                
1 30797U 07004D   22202.15379005 -.00000325  00000+0  00000+0 0  9994
2 30797   9.9776 331.6872 8341527 185.7916 215.5373  0.87838074 52955
THEMIS E                
1 30798U 07004E   22201.76027587 -.00000320  00000+0  00000+0 0  9991
2 30798  10.8324 344.8819 8329089 174.7136  80.4802  0.87841406 53369
AIM                     
1 31304U 07015A   22202.21312102  .00007758  00000+0  38330-3 0  9990
2 31304  97.8533 122.6838 0003113 256.3790 103.7096 15.18155202836315
FGRST (GLAST)           
1 33053U 08029A   22201.69170978  .00002020  00000+0  96718-4 0  9995
2 33053  25.5828 300.5146 0011866 203.8967 156.1018 15.12276541778730
WISE                    
1 36119U 09071A   22201.73149589  .00007402  00000+0  22730-3 0  9999
2 36119  97.2376 235.4950 0002898 144.5028 215.6408 15.34005373700605
TDRS 11                 
1 39070U 13004A   22201.76337368  .00000076  00000+0  00000+0 0  9998
2 39070   2.8998 346.9824 0007439  75.3597 336.6661  1.00267219 32387
TDRS 12                 
1 39504U 14004A   22202.29219154 -.00000271  00000+0  00000+0 0  9990
2 39504   3.8304 347.8670 0004822 136.9624 238.4454  1.00267702 31147
GPM-CORE                
1 39574U 14009C   22202.31398075  .00015751  00000+0  22549-3 0  9999
2 39574  65.0024  73.0142 0012270 282.6644  77.3130 15.56294243476883
MMS 1                   
1 40482U 15011A   22202.29134259 -.00001808  00000+0  00000+0 0  9995
2 40482  31.6756 102.5117 8720305  55.4152 319.8500  0.28436833 13391
MMS 2                   
1 40483U 15011B   22202.29785880 -.00001809  00000+0  00000+0 0  9999
2 40483  31.6733 102.5151 8721494  55.4119 320.5265  0.28436553 13361
MMS 3                   
1 40484U 15011C   22202.29966435 -.00001810  00000+0  00000+0 0  9999
2 40484  31.6701 102.5234 8720212  55.4030 320.7328  0.28429135 13368
MMS 4                   
1 40485U 15011D   22202.30211806 -.00001810  00000+0  00000+0 0  9997
2 40485  31.6719 102.5182 8720726  55.4160 320.9410  0.28436335 13368
TDRS 13                 
1 42915U 17047A   22201.76703615 -.00000101  00000+0  00000+0 0  9993
2 42915   4.4291 333.7850 0019396 119.2953 110.0594  1.00272393 18039
JPSS-1                  
1 43013U 17073A   22202.54924391  .00000024  00000+0  32304-4 0  9995
2 43013  98.7168 140.5723 0001053  63.1011 297.0273 14.19562471242069
